[{"OBJECT_NAME":"INTELSAT 30 (IS-30)","OBJECT_ID":"2014-062A","EPOCH":"2026-04-24T09:28:38.441568","MEAN_MOTION":1.00269572,"ECCENTRICITY":0.00022471,"INCLINATION":0.0073,"RA_OF_ASC_NODE":224.7449,"ARG_OF_PERICENTER":46.3663,"MEAN_ANOMALY":348.4158,"EPHEMERIS_TYPE":0,"CLASSIFICATION_TYPE":"U","NORAD_CAT_ID":40271,"ELEMENT_SET_NO":999,"REV_AT_EPOCH":625,"BSTAR":0,"MEAN_MOTION_DOT":-1.65e-6,"MEAN_MOTION_DDOT":0},{"OBJECT_NAME":"DIRECTV 14","OBJECT_ID":"2014-078B","EPOCH":"2026-04-25T21:41:39.794784","MEAN_MOTION":1.0027242,"ECCENTRICITY":3.427e-5,"INCLINATION":0.0022,"RA_OF_ASC_NODE":352.3297,"ARG_OF_PERICENTER":186.5037,"MEAN_ANOMALY":261.2569,"EPHEMERIS_TYPE":0,"CLASSIFICATION_TYPE":"U","NORAD_CAT_ID":40333,"ELEMENT_SET_NO":999,"REV_AT_EPOCH":4151,"BSTAR":0,"MEAN_MOTION_DOT":-1.39e-6,"MEAN_MOTION_DDOT":0},{"OBJECT_NAME":"DIRECTV 15","OBJECT_ID":"2015-026A","EPOCH":"2026-04-25T21:40:39.890208","MEAN_MOTION":1.00271082,"ECCENTRICITY":2.786e-5,"INCLINATION":0.0171,"RA_OF_ASC_NODE":115.2367,"ARG_OF_PERICENTER":51.9177,"MEAN_ANOMALY":269.0527,"EPHEMERIS_TYPE":0,"CLASSIFICATION_TYPE":"U","NORAD_CAT_ID":40663,"ELEMENT_SET_NO":999,"REV_AT_EPOCH":3993,"BSTAR":0,"MEAN_MOTION_DOT":0,"MEAN_MOTION_DDOT":0},{"OBJECT_NAME":"SKY MEXICO-1","OBJECT_ID":"2015-026B","EPOCH":"2026-04-25T20:49:38.771040","MEAN_MOTION":1.00271508,"ECCENTRICITY":0.00020455,"INCLINATION":0.0434,"RA_OF_ASC_NODE":69.3381,"ARG_OF_PERICENTER":318.0762,"MEAN_ANOMALY":60.0591,"EPHEMERIS_TYPE":0,"CLASSIFICATION_TYPE":"U","NORAD_CAT_ID":40664,"ELEMENT_SET_NO":999,"REV_AT_EPOCH":3992,"BSTAR":0,"MEAN_MOTION_DOT":-2.48e-6,"MEAN_MOTION_DDOT":0},{"OBJECT_NAME":"INTELSAT 34 (IS-34)","OBJECT_ID":"2015-039A","EPOCH":"2026-04-25T20:57:38.714400","MEAN_MOTION":1.00273592,"ECCENTRICITY":3.047e-5,"INCLINATION":0.0154,"RA_OF_ASC_NODE":282.7986,"ARG_OF_PERICENTER":29.5136,"MEAN_ANOMALY":160.4881,"EPHEMERIS_TYPE":0,"CLASSIFICATION_TYPE":"U","NORAD_CAT_ID":40874,"ELEMENT_SET_NO":999,"REV_AT_EPOCH":3911,"BSTAR":0,"MEAN_MOTION_DOT":-2.99e-6,"MEAN_MOTION_DDOT":0},{"OBJECT_NAME":"INTELSAT 31 (IS-31)","OBJECT_ID":"2016-035A","EPOCH":"2026-04-25T21:42:54.675072","MEAN_MOTION":1.00270975,"ECCENTRICITY":0.00022252,"INCLINATION":0.0111,"RA_OF_ASC_NODE":234.1895,"ARG_OF_PERICENTER":40.3457,"MEAN_ANOMALY":170.0615,"EPHEMERIS_TYPE":0,"CLASSIFICATION_TYPE":"U","NORAD_CAT_ID":41581,"ELEMENT_SET_NO":999,"REV_AT_EPOCH":3615,"BSTAR":0,"MEAN_MOTION_DOT":-1.64e-6,"MEAN_MOTION_DDOT":0},{"OBJECT_NAME":"INTELSAT 36 (IS-36)","OBJECT_ID":"2016-053A","EPOCH":"2026-04-25T22:59:38.461920","MEAN_MOTION":1.00279675,"ECCENTRICITY":0.0001416,"INCLINATION":0.015,"RA_OF_ASC_NODE":329.9187,"ARG_OF_PERICENTER":8.4872,"MEAN_ANOMALY":288.9663,"EPHEMERIS_TYPE":0,"CLASSIFICATION_TYPE":"U","NORAD_CAT_ID":41747,"ELEMENT_SET_NO":999,"REV_AT_EPOCH":3543,"BSTAR":0,"MEAN_MOTION_DOT":-4.0e-7,"MEAN_MOTION_DDOT":0},{"OBJECT_NAME":"INTELSAT 32E (IS-32E)","OBJECT_ID":"2017-007B","EPOCH":"2026-04-25T21:57:38.261952","MEAN_MOTION":1.00266678,"ECCENTRICITY":3.264e-5,"INCLINATION":0.0192,"RA_OF_ASC_NODE":244.1291,"ARG_OF_PERICENTER":85.7284,"MEAN_ANOMALY":170.3076,"EPHEMERIS_TYPE":0,"CLASSIFICATION_TYPE":"U","NORAD_CAT_ID":41945,"ELEMENT_SET_NO":999,"REV_AT_EPOCH":3370,"BSTAR":0,"MEAN_MOTION_DOT":0,"MEAN_MOTION_DDOT":0},{"OBJECT_NAME":"INTELSAT 35E (IS-35E)","OBJECT_ID":"2017-041A","EPOCH":"2026-04-25T22:00:08.023392","MEAN_MOTION":1.00271555,"ECCENTRICITY":0.00021803,"INCLINATION":0.0136,"RA_OF_ASC_NODE":225.7307,"ARG_OF_PERICENTER":166.2614,"MEAN_ANOMALY":117.4844,"EPHEMERIS_TYPE":0,"CLASSIFICATION_TYPE":"U","NORAD_CAT_ID":42818,"ELEMENT_SET_NO":999,"REV_AT_EPOCH":3229,"BSTAR":0,"MEAN_MOTION_DOT":0,"MEAN_MOTION_DDOT":0},{"OBJECT_NAME":"INTELSAT 37E (IS-37E)","OBJECT_ID":"2017-059A","EPOCH":"2026-04-25T22:04:52.567968","MEAN_MOTION":1.0027169,"ECCENTRICITY":0.00021229,"INCLINATION":0.0085,"RA_OF_ASC_NODE":206.4195,"ARG_OF_PERICENTER":209.2116,"MEAN_ANOMALY":111.5161,"EPHEMERIS_TYPE":0,"CLASSIFICATION_TYPE":"U","NORAD_CAT_ID":42950,"ELEMENT_SET_NO":999,"REV_AT_EPOCH":3154,"BSTAR":0,"MEAN_MOTION_DOT":-1.54e-6,"MEAN_MOTION_DDOT":0},{"OBJECT_NAME":"AZERSPACE 2 (IS-38)","OBJECT_ID":"2018-074A","EPOCH":"2026-04-25T22:51:38.515968","MEAN_MOTION":1.0026958,"ECCENTRICITY":0.00013912,"INCLINATION":0.0182,"RA_OF_ASC_NODE":256.4093,"ARG_OF_PERICENTER":125.4446,"MEAN_ANOMALY":220.1301,"EPHEMERIS_TYPE":0,"CLASSIFICATION_TYPE":"U","NORAD_CAT_ID":43632,"ELEMENT_SET_NO":999,"REV_AT_EPOCH":2792,"BSTAR":0,"MEAN_MOTION_DOT":1.23e-6,"MEAN_MOTION_DDOT":0},{"OBJECT_NAME":"HORIZONS-3E","OBJECT_ID":"2018-074B","EPOCH":"2026-04-25T19:32:52.145952","MEAN_MOTION":1.00271358,"ECCENTRICITY":6.596e-5,"INCLINATION":0.0398,"RA_OF_ASC_NODE":64.8179,"ARG_OF_PERICENTER":266.7017,"MEAN_ANOMALY":344.5129,"EPHEMERIS_TYPE":0,"CLASSIFICATION_TYPE":"U","NORAD_CAT_ID":43633,"ELEMENT_SET_NO":999,"REV_AT_EPOCH":2781,"BSTAR":0,"MEAN_MOTION_DOT":-4.4e-7,"MEAN_MOTION_DDOT":0},{"OBJECT_NAME":"AT&T T-16","OBJECT_ID":"2019-034A","EPOCH":"2026-04-25T13:07:47.636832","MEAN_MOTION":1.00271356,"ECCENTRICITY":7.439e-5,"INCLINATION":0.0388,"RA_OF_ASC_NODE":62.8509,"ARG_OF_PERICENTER":158.3842,"MEAN_ANOMALY":88.419,"EPHEMERIS_TYPE":0,"CLASSIFICATION_TYPE":"U","NORAD_CAT_ID":44333,"ELEMENT_SET_NO":999,"REV_AT_EPOCH":2510,"BSTAR":0,"MEAN_MOTION_DOT":-1.29e-6,"MEAN_MOTION_DDOT":0},{"OBJECT_NAME":"INTELSAT 39 (IS-39)","OBJECT_ID":"2019-049B","EPOCH":"2026-04-25T17:19:40.221984","MEAN_MOTION":1.0026954,"ECCENTRICITY":4.794e-5,"INCLINATION":0.0173,"RA_OF_ASC_NODE":238.7985,"ARG_OF_PERICENTER":6.5465,"MEAN_ANOMALY":290.2524,"EPHEMERIS_TYPE":0,"CLASSIFICATION_TYPE":"U","NORAD_CAT_ID":44476,"ELEMENT_SET_NO":999,"REV_AT_EPOCH":2460,"BSTAR":0,"MEAN_MOTION_DOT":0,"MEAN_MOTION_DDOT":0},{"OBJECT_NAME":"GALAXY 30 (G-30)","OBJECT_ID":"2020-056C","EPOCH":"2026-04-25T16:26:15.345312","MEAN_MOTION":1.00270886,"ECCENTRICITY":0.00024075,"INCLINATION":0.0142,"RA_OF_ASC_NODE":234.9528,"ARG_OF_PERICENTER":170.7438,"MEAN_ANOMALY":289.5604,"EPHEMERIS_TYPE":0,"CLASSIFICATION_TYPE":"U","NORAD_CAT_ID":46114,"ELEMENT_SET_NO":999,"REV_AT_EPOCH":2076,"BSTAR":0,"MEAN_MOTION_DOT":0,"MEAN_MOTION_DDOT":0},{"OBJECT_NAME":"GALAXY 33 (G-33)","OBJECT_ID":"2022-128A","EPOCH":"2026-04-25T16:24:00.559584","MEAN_MOTION":1.00270707,"ECCENTRICITY":0.0001842,"INCLINATION":0.0118,"RA_OF_ASC_NODE":120.1579,"ARG_OF_PERICENTER":261.7248,"MEAN_ANOMALY":304.8067,"EPHEMERIS_TYPE":0,"CLASSIFICATION_TYPE":"U","NORAD_CAT_ID":54026,"ELEMENT_SET_NO":999,"REV_AT_EPOCH":1321,"BSTAR":0,"MEAN_MOTION_DOT":6.5e-7,"MEAN_MOTION_DDOT":0},{"OBJECT_NAME":"GALAXY 34 (G-34)","OBJECT_ID":"2022-128B","EPOCH":"2026-04-25T14:44:38.505120","MEAN_MOTION":1.0027073,"ECCENTRICITY":0.00015014,"INCLINATION":0.0108,"RA_OF_ASC_NODE":219.1287,"ARG_OF_PERICENTER":175.0993,"MEAN_ANOMALY":271.5552,"EPHEMERIS_TYPE":0,"CLASSIFICATION_TYPE":"U","NORAD_CAT_ID":54027,"ELEMENT_SET_NO":999,"REV_AT_EPOCH":1338,"BSTAR":0,"MEAN_MOTION_DOT":0,"MEAN_MOTION_DDOT":0}]
