INTELSAT 30 (IS-30)     
1 40271U 14062A   26114.39488937 -.00000165  00000+0  00000+0 0  9993
2 40271   0.0073 224.7449 0002247  46.3663 348.4158  1.00269572  6259
DIRECTV 14              
1 40333U 14078B   26115.90393281 -.00000139  00000+0  00000+0 0  9995
2 40333   0.0022 352.3297 0000342 186.5037 261.2569  1.00272420 41519
DIRECTV 15              
1 40663U 15026A   26115.90323947  .00000000  00000+0  00000+0 0  9993
2 40663   0.0171 115.2367 0000278  51.9177 269.0527  1.00271082 39938
SKY MEXICO-1            
1 40664U 15026B   26115.86780985 -.00000248  00000+0  00000+0 0  9993
2 40664   0.0434  69.3381 0002045 318.0762  60.0591  1.00271508 39929
INTELSAT 34 (IS-34)     
1 40874U 15039A   26115.87336475 -.00000299  00000+0  00000+0 0  9998
2 40874   0.0154 282.7986 0000304  29.5136 160.4881  1.00273592 39111
INTELSAT 31 (IS-31)     
1 41581U 16035A   26115.90479948 -.00000164  00000+0  00000+0 0  9999
2 41581   0.0111 234.1895 0002225  40.3457 170.0615  1.00270975 36156
INTELSAT 36 (IS-36)     
1 41747U 16053A   26115.95808405 -.00000040  00000+0  00000+0 0  9995
2 41747   0.0150 329.9187 0001416   8.4872 288.9663  1.00279675 35435
INTELSAT 32E (IS-32E)   
1 41945U 17007B   26115.91502618  .00000000  00000+0  00000+0 0  9993
2 41945   0.0192 244.1291 0000326  85.7284 170.3076  1.00266678 33708
INTELSAT 35E (IS-35E)   
1 42818U 17041A   26115.91675953  .00000000  00000+0  00000+0 0  9994
2 42818   0.0136 225.7307 0002180 166.2614 117.4844  1.00271555 32299
INTELSAT 37E (IS-37E)   
1 42950U 17059A   26115.92005287 -.00000154  00000+0  00000+0 0  9999
2 42950   0.0085 206.4195 0002122 209.2116 111.5161  1.00271690 31545
AZERSPACE 2 (IS-38)     
1 43632U 18074A   26115.95252912  .00000123  00000+0  00000+0 0  9992
2 43632   0.0182 256.4093 0001391 125.4446 220.1301  1.00269580 27920
HORIZONS-3E             
1 43633U 18074B   26115.81449243 -.00000044  00000+0  00000+0 0  9996
2 43633   0.0398  64.8179 0000659 266.7017 344.5129  1.00271358 27818
AT&T T-16               
1 44333U 19034A   26115.54707913 -.00000129  00000+0  00000+0 0  9996
2 44333   0.0388  62.8509 0000743 158.3842  88.4190  1.00271356 25106
INTELSAT 39 (IS-39)     
1 44476U 19049B   26115.72199331  .00000000  00000+0  00000+0 0  9996
2 44476   0.0173 238.7985 0000479   6.5465 290.2524  1.00269540 24609
GALAXY 30 (G-30)        
1 46114U 20056C   26115.68489983  .00000000  00000+0  00000+0 0  9997
2 46114   0.0142 234.9528 0002407 170.7438 289.5604  1.00270886 20762
GALAXY 33 (G-33)        
1 54026U 22128A   26115.68333981  .00000065  00000+0  00000+0 0  9997
2 54026   0.0118 120.1579 0001842 261.7248 304.8067  1.00270707 13218
GALAXY 34 (G-34)        
1 54027U 22128B   26115.61433455  .00000000  00000+0  00000+0 0  9997
2 54027   0.0108 219.1287 0001501 175.0993 271.5552  1.00270730 13382
